#aV2015  9  8  0  0  0.00000000     288 DD+AD WGS84 FIT  NGA
## 1861 172800.00000000   300.00000000 57273 0.0000000000000
+   31     1  2  3  4  5  6  7  8  9 11 12 13 14 15 16 17 18
+         19 20 21 22 23 24 25 26 27 28 29 30 31 32  0  0  0
+          0  0  0  0  0  0  0  0  0  0  0  0  0  0  0  0  0
+          0  0  0  0  0  0  0  0  0  0  0  0  0  0  0  0  0
+          0  0  0  0  0  0  0  0  0  0  0  0  0  0  0  0  0
++         2  2  2  2  2  2  2  2  2  2  2  2  2  2  2  2  2
++         2  2  2  2  2  2  2  2  2  2  2  2  2  2  0  0  0
++         0  0  0  0  0  0  0  0  0  0  0  0  0  0  0  0  0
++         0  0  0  0  0  0  0  0  0  0  0  0  0  0  0  0  0
++         0  0  0  0  0  0  0  0  0  0  0  0  0  0  0  0  0
%c cc cc ccc ccc cccc cccc cccc cccc ccccc ccccc ccccc ccccc
%c cc cc ccc ccc cccc cccc cccc cccc ccccc ccccc ccccc ccccc
%f  0.0000000  0.000000000  0.00000000000  0.000000000000000
%f  0.0000000  0.000000000  0.00000000000  0.000000000000000
%i    0    0    0    0      0      0      0      0         0
%i    0    0    0    0      0      0      0      0         0
/*      NGA, ST. LOUIS,MO.                                  
/*   EPHEMERIS COMPUTED FROM  1 DAYS OF DATA                
/*   EPOCHA SMOOTHER                                       
/* CCCCCCCCCCCCCCCCCCCCCCCCCCCCCCCCCCCCCCCCCCCCCCCCCCCCCCCCC
*  2015  9  8  5 35  0.00000000
P  1 -19231.568077  -7880.347225  16584.788628      0.106212                    
V  1 -10405.957977 -18436.036597 -20543.695163      0.006827                    
P  2  13850.688511  22771.384420   3174.387217    587.927886                    
V  2  -4495.115952  -1082.436089  30705.819361      0.017246                    
P  3 -17013.116262   2688.060800  20234.511607     20.390614                    
V  3  10158.585161 -23595.804766  11656.637903      0.011952                    
P  4 -19291.327777 -15983.550182   8858.568625    -18.287626                    
V  4  -4311.260952 -11269.199902 -28346.452581     -0.040658                    
P  5   6524.337718  17723.184208 -18654.703736   -197.820302                    
V  5 -11623.674827  20709.708733  15847.717012      0.041004                    
P  6   4629.313598  22701.021669  12988.895180     53.827501                    
V  6 -11160.778663 -12341.393688  25537.158362      0.074595                    
P  7 -13164.117378   7204.059827 -21803.452652    483.938338                    
V  7 -15255.030979 -23404.866044   1088.334025      0.018445                    
P  8 -23571.788716  -5665.092964 -10788.296517     -4.507976                    
V  8  13524.637865  -3597.779092 -27564.067833     -0.013258                    
P  9 -23546.990590   8338.732382  -9057.879546    -10.168819                    
V  9 -11676.648064  -1732.229186  28756.619997      0.011922                    
P 11 -23558.134187  -8204.802477   8702.346720   -602.859519                    
V 11  -7087.791198 -10553.390456 -27319.927432     -0.023820                    
P 12  15527.702474    776.875672  21391.379877    326.138664                    
V 12 -12483.662958  24369.073947   8339.161593      0.034853                    
P 13  15281.373898  12632.508365 -17750.582327   -147.422722                    
V 13 -22326.399320    682.767303 -18984.263623     -0.029858                    
P 14   9990.495510 -14103.506993  20377.394189     36.227581                    
V 14  25342.690093   1023.230119 -12016.563831     -0.026040                    
P 15  24190.907682   4693.373036 -10423.488029   -270.415827                    
V 15 -12557.407579   4611.795149 -26988.276587     -0.020318                    
P 16  -4416.658062 -17758.406743 -19187.354429    -88.852673                    
V 16  12886.107225 -20573.465984  16498.040855      0.040155                    
P 17  -8648.183606  14435.792780  20796.637413   -186.964965                    
V 17 -25760.335434    -52.028861 -11039.775678     -0.012752                    
P 18  15508.025539 -19575.942937  -8102.431447    432.201880                    
V 18   -938.511617  11762.979348 -28730.461767      0.032018                    
P 19 -25820.853989  -4473.910060  -5874.914198   -519.734046                    
V 19   7104.587686  -1894.712611 -30523.352712     -0.006332                    
P 20  16501.533195    986.902049 -20950.566003    353.526540                    
V 20  -8929.404191  24836.482646  -5823.185362      0.030832                    
P 21  11013.156927 -11001.375656 -20793.980939   -478.108426                    
V 21  16823.511952  22631.067855  -3291.311196     -0.028247                    
P 22   8144.171417 -24934.875592   3752.386300    389.222641                    
V 22   5573.553905  -2455.889679 -30518.478590      0.038957                    
P 23 -26519.362452   -869.139754   3930.895120   -131.945483                    
V 23   4514.537139  -3143.412333  30650.028194     -0.022272                    
P 24  19865.039631  10130.472566  14511.092742     -4.312717                    
V 24   8892.582178  16307.578662 -23350.060547     -0.006213                    
P 25  17450.432172 -12902.446831  15097.379894    -35.855327                    
V 25  -6782.054949  18240.759880  23428.952706     -0.050508                    
P 26   2610.466560 -23904.063149 -11277.239678    -46.892047                    
V 26   8320.395255 -11899.570323  27162.799414     -0.103623                    
P 27 -13486.628326 -12286.357974 -19373.161485     18.022533                    
V 27  24310.047922  -3098.520203 -14860.284755      0.029594                    
P 28 -12315.422195  23464.444991   1434.593753    466.063266                    
V 28  -2227.378393    -50.957038 -32368.993378      0.025908                    
P 29  24996.442093  -5383.627883  -7098.746240    632.866264                    
V 29   9076.554098   2099.931226  30351.551928      0.022606                    
P 30  -5376.774072  17622.620851 -19103.388917     20.673905                    
V 30 -13491.315856 -20260.906750 -14975.552116      0.067534                    
P 31  -4253.854703 -22802.937986  12749.854212    303.626273                    
V 31  10459.155249  12412.251984  26279.697444     -0.012960                    
P 32 -10952.951598 -11585.545124  21259.795498    -49.676880                    
V 32  13884.348764 -23249.064103  -4969.032556      0.109549                    
EOF
